CCSDS_OMM_VERS = 2.0
CREATION_DATE  = 
ORIGINATOR     = 

OBJECT_NAME    = STARLINK-35401
OBJECT_ID      = 2025-235K
CENTER_NAME    = EARTH
REF_FRAME      = TEME
TIME_SYSTEM    = UTC
MEAN_ELEMENT_THEORY = SGP/SGP4

EPOCH          = 2025-11-08T20:00:01.999008
MEAN_MOTION    = 15.51583399
ECCENTRICITY   = .0001262
INCLINATION    = 53.1610
RA_OF_ASC_NODE = 89.2135
ARG_OF_PERICENTER = 59.0046
MEAN_ANOMALY   = 222.7224

EPHEMERIS_TYPE = 0
CLASSIFICATION_TYPE = U
NORAD_CAT_ID   = 66067
ELEMENT_SET_NO = 999
REV_AT_EPOCH   = 437
BSTAR          = -.34197E-1
MEAN_MOTION_DOT = -.1826923E-1
MEAN_MOTION_DDOT = 0

CCSDS_OMM_VERS = 2.0
CREATION_DATE  = 
ORIGINATOR     = 

OBJECT_NAME    = STARLINK-35422
OBJECT_ID      = 2025-235L
CENTER_NAME    = EARTH
REF_FRAME      = TEME
TIME_SYSTEM    = UTC
MEAN_ELEMENT_THEORY = SGP/SGP4

EPOCH          = 2025-11-08T20:00:01.999008
MEAN_MOTION    = 15.51583808
ECCENTRICITY   = .0001298
INCLINATION    = 53.1609
RA_OF_ASC_NODE = 89.2096
ARG_OF_PERICENTER = 59.9173
MEAN_ANOMALY   = 223.7266

EPHEMERIS_TYPE = 0
CLASSIFICATION_TYPE = U
NORAD_CAT_ID   = 66068
ELEMENT_SET_NO = 999
REV_AT_EPOCH   = 437
BSTAR          = -.34266E-1
MEAN_MOTION_DOT = -.1830235E-1
MEAN_MOTION_DDOT = 0

CCSDS_OMM_VERS = 2.0
CREATION_DATE  = 
ORIGINATOR     = 

OBJECT_NAME    = STARLINK-35279
OBJECT_ID      = 2025-235M
CENTER_NAME    = EARTH
REF_FRAME      = TEME
TIME_SYSTEM    = UTC
MEAN_ELEMENT_THEORY = SGP/SGP4

EPOCH          = 2025-11-08T20:00:01.999008
MEAN_MOTION    = 15.51582663
ECCENTRICITY   = .0001221
INCLINATION    = 53.1609
RA_OF_ASC_NODE = 89.2058
ARG_OF_PERICENTER = 63.6221
MEAN_ANOMALY   = 221.9422

EPHEMERIS_TYPE = 0
CLASSIFICATION_TYPE = U
NORAD_CAT_ID   = 66069
ELEMENT_SET_NO = 999
REV_AT_EPOCH   = 442
BSTAR          = -.34257E-1
MEAN_MOTION_DOT = -.1829661E-1
MEAN_MOTION_DDOT = 0

CCSDS_OMM_VERS = 2.0
CREATION_DATE  = 
ORIGINATOR     = 

OBJECT_NAME    = STARLINK-35295
OBJECT_ID      = 2025-235N
CENTER_NAME    = EARTH
REF_FRAME      = TEME
TIME_SYSTEM    = UTC
MEAN_ELEMENT_THEORY = SGP/SGP4

EPOCH          = 2025-11-08T20:00:01.999008
MEAN_MOTION    = 15.51596871
ECCENTRICITY   = .0001282
INCLINATION    = 53.1608
RA_OF_ASC_NODE = 89.1983
ARG_OF_PERICENTER = 69.0507
MEAN_ANOMALY   = 220.3418

EPHEMERIS_TYPE = 0
CLASSIFICATION_TYPE = U
NORAD_CAT_ID   = 66070
ELEMENT_SET_NO = 999
REV_AT_EPOCH   = 442
BSTAR          = -.34899E-1
MEAN_MOTION_DOT = -.1860822E-1
MEAN_MOTION_DDOT = 0

CCSDS_OMM_VERS = 2.0
CREATION_DATE  = 
ORIGINATOR     = 

OBJECT_NAME    = STARLINK-35323
OBJECT_ID      = 2025-235P
CENTER_NAME    = EARTH
REF_FRAME      = TEME
TIME_SYSTEM    = UTC
MEAN_ELEMENT_THEORY = SGP/SGP4

EPOCH          = 2025-11-08T20:00:01.999008
MEAN_MOTION    = 15.51577223
ECCENTRICITY   = .0001123
INCLINATION    = 53.1609
RA_OF_ASC_NODE = 89.2016
ARG_OF_PERICENTER = 56.1518
MEAN_ANOMALY   = 231.3267

EPHEMERIS_TYPE = 0
CLASSIFICATION_TYPE = U
NORAD_CAT_ID   = 66071
ELEMENT_SET_NO = 999
REV_AT_EPOCH   = 442
BSTAR          = -.34004E-1
MEAN_MOTION_DOT = -.1817334E-1
MEAN_MOTION_DDOT = 0

CCSDS_OMM_VERS = 2.0
CREATION_DATE  = 
ORIGINATOR     = 

OBJECT_NAME    = STARLINK-35299
OBJECT_ID      = 2025-235Q
CENTER_NAME    = EARTH
REF_FRAME      = TEME
TIME_SYSTEM    = UTC
MEAN_ELEMENT_THEORY = SGP/SGP4

EPOCH          = 2025-11-08T20:00:01.999008
MEAN_MOTION    = 15.51587717
ECCENTRICITY   = .000114
INCLINATION    = 53.1611
RA_OF_ASC_NODE = 89.1936
ARG_OF_PERICENTER = 58.3586
MEAN_ANOMALY   = 232.9509

EPHEMERIS_TYPE = 0
CLASSIFICATION_TYPE = U
NORAD_CAT_ID   = 66072
ELEMENT_SET_NO = 999
REV_AT_EPOCH   = 442
BSTAR          = -.34295E-1
MEAN_MOTION_DOT = -.1831705E-1
MEAN_MOTION_DDOT = 0

CCSDS_OMM_VERS = 2.0
CREATION_DATE  = 
ORIGINATOR     = 

OBJECT_NAME    = STARLINK-35274
OBJECT_ID      = 2025-235R
CENTER_NAME    = EARTH
REF_FRAME      = TEME
TIME_SYSTEM    = UTC
MEAN_ELEMENT_THEORY = SGP/SGP4

EPOCH          = 2025-11-08T20:00:01.999008
MEAN_MOTION    = 15.51594825
ECCENTRICITY   = .0001285
INCLINATION    = 53.1610
RA_OF_ASC_NODE = 89.1892
ARG_OF_PERICENTER = 68.2308
MEAN_ANOMALY   = 224.9956

EPHEMERIS_TYPE = 0
CLASSIFICATION_TYPE = U
NORAD_CAT_ID   = 66073
ELEMENT_SET_NO = 999
REV_AT_EPOCH   = 442
BSTAR          = -.34788E-1
MEAN_MOTION_DOT = -.185549E-1
MEAN_MOTION_DDOT = 0

CCSDS_OMM_VERS = 2.0
CREATION_DATE  = 
ORIGINATOR     = 

OBJECT_NAME    = STARLINK-35321
OBJECT_ID      = 2025-235S
CENTER_NAME    = EARTH
REF_FRAME      = TEME
TIME_SYSTEM    = UTC
MEAN_ELEMENT_THEORY = SGP/SGP4

EPOCH          = 2025-11-08T20:00:01.999008
MEAN_MOTION    = 15.51579338
ECCENTRICITY   = .0001185
INCLINATION    = 53.1607
RA_OF_ASC_NODE = 89.1846
ARG_OF_PERICENTER = 56.3149
MEAN_ANOMALY   = 238.8297

EPHEMERIS_TYPE = 0
CLASSIFICATION_TYPE = U
NORAD_CAT_ID   = 66074
ELEMENT_SET_NO = 999
REV_AT_EPOCH   = 442
BSTAR          = -.34089E-1
MEAN_MOTION_DOT = -.182151E-1
MEAN_MOTION_DDOT = 0

CCSDS_OMM_VERS = 2.0
CREATION_DATE  = 
ORIGINATOR     = 

OBJECT_NAME    = STARLINK-35131
OBJECT_ID      = 2025-235T
CENTER_NAME    = EARTH
REF_FRAME      = TEME
TIME_SYSTEM    = UTC
MEAN_ELEMENT_THEORY = SGP/SGP4

EPOCH          = 2025-11-08T20:00:01.999008
MEAN_MOTION    = 15.51579278
ECCENTRICITY   = .0001166
INCLINATION    = 53.1608
RA_OF_ASC_NODE = 89.1721
ARG_OF_PERICENTER = 54.3137
MEAN_ANOMALY   = 246.5800

EPHEMERIS_TYPE = 0
CLASSIFICATION_TYPE = U
NORAD_CAT_ID   = 66075
ELEMENT_SET_NO = 999
REV_AT_EPOCH   = 442
BSTAR          = -.34046E-1
MEAN_MOTION_DOT = -.1819442E-1
MEAN_MOTION_DDOT = 0

CCSDS_OMM_VERS = 2.0
CREATION_DATE  = 
ORIGINATOR     = 

OBJECT_NAME    = STARLINK-34801
OBJECT_ID      = 2025-235U
CENTER_NAME    = EARTH
REF_FRAME      = TEME
TIME_SYSTEM    = UTC
MEAN_ELEMENT_THEORY = SGP/SGP4

EPOCH          = 2025-11-08T20:00:01.999008
MEAN_MOTION    = 15.51579348
ECCENTRICITY   = .0001202
INCLINATION    = 53.1608
RA_OF_ASC_NODE = 89.1806
ARG_OF_PERICENTER = 56.6798
MEAN_ANOMALY   = 240.3824

EPHEMERIS_TYPE = 0
CLASSIFICATION_TYPE = U
NORAD_CAT_ID   = 66076
ELEMENT_SET_NO = 999
REV_AT_EPOCH   = 442
BSTAR          = -.34108E-1
MEAN_MOTION_DOT = -.1822414E-1
MEAN_MOTION_DDOT = 0

CCSDS_OMM_VERS = 2.0
CREATION_DATE  = 
ORIGINATOR     = 

OBJECT_NAME    = STARLINK-35129
OBJECT_ID      = 2025-235V
CENTER_NAME    = EARTH
REF_FRAME      = TEME
TIME_SYSTEM    = UTC
MEAN_ELEMENT_THEORY = SGP/SGP4

EPOCH          = 2025-11-08T20:00:01.999008
MEAN_MOTION    = 15.51584606
ECCENTRICITY   = .0001252
INCLINATION    = 53.1609
RA_OF_ASC_NODE = 89.1775
ARG_OF_PERICENTER = 59.0582
MEAN_ANOMALY   = 239.9211

EPHEMERIS_TYPE = 0
CLASSIFICATION_TYPE = U
NORAD_CAT_ID   = 66077
ELEMENT_SET_NO = 999
REV_AT_EPOCH   = 442
BSTAR          = -.343E-1
MEAN_MOTION_DOT = -.183183E-1
MEAN_MOTION_DDOT = 0

CCSDS_OMM_VERS = 2.0
CREATION_DATE  = 
ORIGINATOR     = 

OBJECT_NAME    = STARLINK-35116
OBJECT_ID      = 2025-235W
CENTER_NAME    = EARTH
REF_FRAME      = TEME
TIME_SYSTEM    = UTC
MEAN_ELEMENT_THEORY = SGP/SGP4

EPOCH          = 2025-11-08T20:00:01.999008
MEAN_MOTION    = 15.51580255
ECCENTRICITY   = .0001128
INCLINATION    = 53.1609
RA_OF_ASC_NODE = 89.1636
ARG_OF_PERICENTER = 53.8980
MEAN_ANOMALY   = 250.8297

EPHEMERIS_TYPE = 0
CLASSIFICATION_TYPE = U
NORAD_CAT_ID   = 66078
ELEMENT_SET_NO = 999
REV_AT_EPOCH   = 442
BSTAR          = -.34011E-1
MEAN_MOTION_DOT = -.1817856E-1
MEAN_MOTION_DDOT = 0

CCSDS_OMM_VERS = 2.0
CREATION_DATE  = 
ORIGINATOR     = 

OBJECT_NAME    = STARLINK-35402
OBJECT_ID      = 2025-235X
CENTER_NAME    = EARTH
REF_FRAME      = TEME
TIME_SYSTEM    = UTC
MEAN_ELEMENT_THEORY = SGP/SGP4

EPOCH          = 2025-11-08T20:00:01.999008
MEAN_MOTION    = 15.51577342
ECCENTRICITY   = .0001185
INCLINATION    = 53.1610
RA_OF_ASC_NODE = 89.1601
ARG_OF_PERICENTER = 58.4082
MEAN_ANOMALY   = 248.2389

EPHEMERIS_TYPE = 0
CLASSIFICATION_TYPE = U
NORAD_CAT_ID   = 66079
ELEMENT_SET_NO = 999
REV_AT_EPOCH   = 442
BSTAR          = -.33947E-1
MEAN_MOTION_DOT = -.1814665E-1
MEAN_MOTION_DDOT = 0

CCSDS_OMM_VERS = 2.0
CREATION_DATE  = 
ORIGINATOR     = 

OBJECT_NAME    = STARLINK-35325
OBJECT_ID      = 2025-235Y
CENTER_NAME    = EARTH
REF_FRAME      = TEME
TIME_SYSTEM    = UTC
MEAN_ELEMENT_THEORY = SGP/SGP4

EPOCH          = 2025-11-08T20:00:01.999008
MEAN_MOTION    = 15.51578937
ECCENTRICITY   = .000114
INCLINATION    = 53.1609
RA_OF_ASC_NODE = 89.1674
ARG_OF_PERICENTER = 53.1313
MEAN_ANOMALY   = 249.6809

EPHEMERIS_TYPE = 0
CLASSIFICATION_TYPE = U
NORAD_CAT_ID   = 66080
ELEMENT_SET_NO = 999
REV_AT_EPOCH   = 442
BSTAR          = -.33996E-1
MEAN_MOTION_DOT = -.1817049E-1
MEAN_MOTION_DDOT = 0

CCSDS_OMM_VERS = 2.0
CREATION_DATE  = 
ORIGINATOR     = 

OBJECT_NAME    = STARLINK-35403
OBJECT_ID      = 2025-235Z
CENTER_NAME    = EARTH
REF_FRAME      = TEME
TIME_SYSTEM    = UTC
MEAN_ELEMENT_THEORY = SGP/SGP4

EPOCH          = 2025-11-08T20:00:01.999008
MEAN_MOTION    = 15.51584086
ECCENTRICITY   = .0001253
INCLINATION    = 53.1609
RA_OF_ASC_NODE = 89.1536
ARG_OF_PERICENTER = 56.4061
MEAN_ANOMALY   = 254.0745

EPHEMERIS_TYPE = 0
CLASSIFICATION_TYPE = U
NORAD_CAT_ID   = 66081
ELEMENT_SET_NO = 999
REV_AT_EPOCH   = 442
BSTAR          = -.3422E-1
MEAN_MOTION_DOT = -.1828037E-1
MEAN_MOTION_DDOT = 0

